{"spkid": "50670752", "covariance": {"epoch": "2457426.5", "labels": ["e", "q", "tp", "node", "peri", "i"], "elements": [{"label": "e", "sigma": 1.0609063749025e-07, "name": "e", "units": null, "title": "eccentricity", "value": ".6665282008862803"}, {"label": "q", "sigma": 2.68061253760543e-07, "name": "q", "value": ".8398967861253395", "title": "perihelion distance", "units": "au"}, {"units": "TDB", "value": "2456745.625098996076", "title": "time of perihelion passage", "sigma": 3.3888582623616e-05, "name": "tp", "label": "tp"}, {"units": "deg", "title": "longitude of the ascending node", "value": "226.0916862220719", "name": "om", "sigma": 1.12835345529964e-05, "label": "node"}, {"name": "w", "sigma": 4.31800165201511e-05, "value": "304.3289148865215", "title": "argument of perihelion", "units": "deg", "label": "peri"}, {"sigma": 1.81174649625604e-05, "name": "i", "title": "inclination", "value": "10.2621042524272", "units": "deg", "label": "i"}], "data": [["1.125522336308772E-14", "-2.843820273006306E-14", "-1.237195777921626E-12", "3.390832486494777E-13", "-4.156695700547637E-12", "3.829992139871071E-13"], ["-2.843820273006306E-14", "7.185683576767433E-14", "3.169793861046935E-12", "-8.429435946021652E-13", "1.052692099325686E-11", "-9.88479210235278E-13"], ["-1.237195777921626E-12", "3.169793861046935E-12", "1.148436032237646E-9", "2.756573911356055E-10", "1.017989180250209E-9", "-4.923500613315487E-10"], ["3.390832486494777E-13", "-8.429435946021652E-13", "2.756573911356055E-10", "1.273181520086629E-10", "2.903215133968321E-11", "-9.754879557107266E-11"], ["-4.156695700547637E-12", "1.052692099325686E-11", "1.017989180250209E-9", "2.903215133968321E-11", "1.864513826680521E-9", "-4.199157180178198E-10"], ["3.829992139871071E-13", "-9.88479210235278E-13", "-4.923500613315487E-10", "-9.754879557107266E-11", "-4.199157180178198E-10", "3.28242536669604E-10"]]}, "elements": [{"sigma": "1.1179E-7", "name": "e", "units": null, "value": ".6653457028102802", "title": "eccentricity", "label": "e"}, {"label": "a", "sigma": "5.4322E-8", "name": "a", "title": "semi-major axis", "value": "2.510863093482046", "units": "au"}, {"label": "q", "name": "q", "sigma": "2.7823E-7", "units": "au", "title": "perihelion distance", "value": ".8402711238888398"}, {"name": "i", "sigma": "1.8073E-5", "units": "deg", "value": "10.2864625187072", "title": "inclination; angle with respect to x-y ecliptic plane", "label": "i"}, {"label": "node", "units": "deg", "title": "longitude of the ascending node", "value": "225.9980631884078", "sigma": "1.1244E-5", "name": "om"}, {"label": "peri", "sigma": "4.2705E-5", "name": "w", "units": "deg", "title": "argument of perihelion", "value": "304.2226060489837"}, {"label": "M", "sigma": "1.8975E-5", "name": "ma", "title": "mean anomaly", "value": "22.58116747850585", "units": "deg"}, {"sigma": "7.3651E-5", "name": "tp", "title": "time of perihelion passage", "value": "2461109.345761433506", "units": "TDB", "label": "tp"}, {"sigma": "4.7161E-5", "name": "per", "value": "1453.225388597545", "title": "sidereal orbital period", "units": "d", "label": "period"}, {"label": "n", "title": "mean motion", "value": ".24772482150716", "units": "deg/d", "sigma": "8.0393E-9", "name": "n"}, {"label": "Q", "name": "ad", "sigma": "9.0466E-8", "value": "4.181455063075251", "title": "aphelion distance", "units": "au"}], "epoch": "2461200.5"}